[{"OBJECT_NAME":"COSMOS 2576","OBJECT_ID":"2024-092A","EPOCH":"2026-03-09T19:49:29.705664","MEAN_MOTION":15.27760963,"ECCENTRICITY":0.0005946,"INCLINATION":97.4253,"RA_OF_ASC_NODE":186.0053,"ARG_OF_PERICENTER":159.7731,"MEAN_ANOMALY":200.3745,"EPHEMERIS_TYPE":0,"CLASSIFICATION_TYPE":"U","NORAD_CAT_ID":59773,"ELEMENT_SET_NO":999,"REV_AT_EPOCH":10127,"BSTAR":0.00056283,"MEAN_MOTION_DOT":0.00015211,"MEAN_MOTION_DDOT":0},{"OBJECT_NAME":"STARLINK-34054","OBJECT_ID":"2025-111U","EPOCH":"2026-03-09T10:10:50.104128","MEAN_MOTION":15.27592397,"ECCENTRICITY":0.00014423,"INCLINATION":43.0041,"RA_OF_ASC_NODE":79.2911,"ARG_OF_PERICENTER":268.6319,"MEAN_ANOMALY":91.4367,"EPHEMERIS_TYPE":0,"CLASSIFICATION_TYPE":"U","NORAD_CAT_ID":64141,"ELEMENT_SET_NO":999,"REV_AT_EPOCH":4542,"BSTAR":0.00073504981,"MEAN_MOTION_DOT":0.00020027,"MEAN_MOTION_DDOT":0}]
